{
  "type": "FeatureCollection",
  "features": [
    {
      "type": "Feature",
      "properties": {
        "norad_id": 63772,
        "name": "BIOMASS",
        "group": "resource",
        "lat": 58.33710676250631,
        "lon": 3.5412213532922845,
        "alt_km": 662.7004039235126,
        "timestamp": "2025-12-11T05:00:25.969010+00:00",
        "meta_object_name": "BIOMASS",
        "meta_object_id": "2025-090A",
        "meta_epoch": "2025-12-10T21:54:50.080032",
        "meta_mean_motion": 14.67540383,
        "meta_eccentricity": 0.00011751,
        "meta_inclination": 98.0701,
        "meta_ra_of_asc_node": 169.9494,
        "meta_arg_of_pericenter": 77.8328,
        "meta_mean_anomaly": 282.3008,
        "meta_ephemeris_type": 0,
        "meta_classification_type": "U",
        "meta_norad_cat_id": 63772,
        "meta_element_set_no": 999,
        "meta_rev_at_epoch": 3307,
        "meta_bstar": 0.00038027793,
        "meta_mean_motion_dot": 2.109e-05,
        "meta_mean_motion_ddot": 0,
        "tle_line1": "1 63772U 25090A   25344.91307963  .00002109  00000+0  38028-3 0  9992",
        "tle_line2": "2 63772  98.0701 169.9494 0001175  77.8328 282.3008 14.67540383 33070"
      },
      "geometry": {
        "type": "Point",
        "coordinates": [
          3.5412213532922845,
          58.33710676250631
        ]
      }
    },
    {
      "type": "Feature",
      "properties": {
        "norad_id": 64694,
        "name": "GOSAT-GW (IBUKI GW)",
        "group": "resource",
        "lat": -29.762014025300154,
        "lon": -74.6133849434259,
        "alt_km": 675.1783695688264,
        "timestamp": "2025-12-11T05:00:25.969020+00:00",
        "meta_object_name": "GOSAT-GW (IBUKI GW)",
        "meta_object_id": "2025-141A",
        "meta_epoch": "2025-12-10T22:35:55.172256",
        "meta_mean_motion": 14.67565098,
        "meta_eccentricity": 0.00014737,
        "meta_inclination": 98.0423,
        "meta_ra_of_asc_node": 280.4871,
        "meta_arg_of_pericenter": 82.5125,
        "meta_mean_anomaly": 277.6247,
        "meta_ephemeris_type": 0,
        "meta_classification_type": "U",
        "meta_norad_cat_id": 64694,
        "meta_element_set_no": 999,
        "meta_rev_at_epoch": 2423,
        "meta_bstar": 0.0002731805,
        "meta_mean_motion_dot": 1.503e-05,
        "meta_mean_motion_ddot": 0,
        "tle_line1": "1 64694U 25141A   25344.94161079  .00001503  00000+0  27318-3 0  9999",
        "tle_line2": "2 64694  98.0423 280.4871 0001473  82.5125 277.6247 14.67565098 24232"
      },
      "geometry": {
        "type": "Point",
        "coordinates": [
          -74.6133849434259,
          -29.762014025300154
        ]
      }
    },
    {
      "type": "Feature",
      "properties": {
        "norad_id": 64876,
        "name": "IONOSFERA-M 3",
        "group": "resource",
        "lat": -45.73676289616062,
        "lon": 118.2087661838255,
        "alt_km": 828.7685908148542,
        "timestamp": "2025-12-11T05:00:25.969030+00:00",
        "meta_object_name": "IONOSFERA-M 3",
        "meta_object_id": "2025-155A",
        "meta_epoch": "2025-12-10T22:52:39.701856",
        "meta_mean_motion": 14.21440305,
        "meta_eccentricity": 0.00022657,
        "meta_inclination": 98.578,
        "meta_ra_of_asc_node": 306.87,
        "meta_arg_of_pericenter": 62.8601,
        "meta_mean_anomaly": 297.2808,
        "meta_ephemeris_type": 0,
        "meta_classification_type": "U",
        "meta_norad_cat_id": 64876,
        "meta_element_set_no": 999,
        "meta_rev_at_epoch": 1966,
        "meta_bstar": 8.7563137e-05,
        "meta_mean_motion_dot": 1.49e-06,
        "meta_mean_motion_ddot": 0,
        "tle_line1": "1 64876U 25155A   25344.95323729  .00000149  00000+0  87563-4 0  9993",
        "tle_line2": "2 64876  98.5780 306.8700 0002265  62.8601 297.2808 14.21440305 19664"
      },
      "geometry": {
        "type": "Point",
        "coordinates": [
          118.2087661838255,
          -45.73676289616062
        ]
      }
    },
    {
      "type": "Feature",
      "properties": {
        "norad_id": 64877,
        "name": "IONOSFERA-M 4",
        "group": "resource",
        "lat": 46.20136750680477,
        "lon": -62.018579260171705,
        "alt_km": 815.296072198319,
        "timestamp": "2025-12-11T05:00:25.969040+00:00",
        "meta_object_name": "IONOSFERA-M 4",
        "meta_object_id": "2025-155B",
        "meta_epoch": "2025-12-10T22:01:47.742816",
        "meta_mean_motion": 14.21441417,
        "meta_eccentricity": 0.00016237,
        "meta_inclination": 98.5779,
        "meta_ra_of_asc_node": 306.7552,
        "meta_arg_of_pericenter": 65.1008,
        "meta_mean_anomaly": 295.0339,
        "meta_ephemeris_type": 0,
        "meta_classification_type": "U",
        "meta_norad_cat_id": 64877,
        "meta_element_set_no": 999,
        "meta_rev_at_epoch": 1965,
        "meta_bstar": 9.5012364e-05,
        "meta_mean_motion_dot": 1.65e-06,
        "meta_mean_motion_ddot": 0,
        "tle_line1": "1 64877U 25155B   25344.91791369  .00000165  00000+0  95012-4 0  9995",
        "tle_line2": "2 64877  98.5779 306.7552 0001623  65.1008 295.0339 14.21441417 19650"
      },
      "geometry": {
        "type": "Point",
        "coordinates": [
          -62.018579260171705,
          46.20136750680477
        ]
      }
    },
    {
      "type": "Feature",
      "properties": {
        "norad_id": 64899,
        "name": "MICROCARB",
        "group": "resource",
        "lat": -74.67138569894291,
        "lon": 91.45865212601294,
        "alt_km": 670.1047601217724,
        "timestamp": "2025-12-11T05:00:25.969049+00:00",
        "meta_object_name": "MICROCARB",
        "meta_object_id": "2025-156A",
        "meta_epoch": "2025-12-10T16:18:22.409856",
        "meta_mean_motion": 14.72051912,
        "meta_eccentricity": 0.00170079,
        "meta_inclination": 98.0027,
        "meta_ra_of_asc_node": 60.0579,
        "meta_arg_of_pericenter": 151.0603,
        "meta_mean_anomaly": 209.1551,
        "meta_ephemeris_type": 0,
        "meta_classification_type": "U",
        "meta_norad_cat_id": 64899,
        "meta_element_set_no": 999,
        "meta_rev_at_epoch": 2023,
        "meta_bstar": 0.00019654512,
        "meta_mean_motion_dot": 1.188e-05,
        "meta_mean_motion_ddot": 0,
        "tle_line1": "1 64899U 25156A   25344.67942604  .00001188  00000+0  19655-3 0  9997",
        "tle_line2": "2 64899  98.0027  60.0579 0017007 151.0603 209.1551 14.72051912 20234"
      },
      "geometry": {
        "type": "Point",
        "coordinates": [
          91.45865212601294,
          -74.67138569894291
        ]
      }
    },
    {
      "type": "Feature",
      "properties": {
        "norad_id": 64900,
        "name": "CO3D 3",
        "group": "resource",
        "lat": 58.74271805090533,
        "lon": 49.17564066581348,
        "alt_km": 498.81540651671276,
        "timestamp": "2025-12-11T05:00:25.969059+00:00",
        "meta_object_name": "CO3D 3",
        "meta_object_id": "2025-156B",
        "meta_epoch": "2025-12-10T22:25:38.176896",
        "meta_mean_motion": 15.20213047,
        "meta_eccentricity": 0.00013964,
        "meta_inclination": 97.4338,
        "meta_ra_of_asc_node": 61.3273,
        "meta_arg_of_pericenter": 101.4652,
        "meta_mean_anomaly": 258.674,
        "meta_ephemeris_type": 0,
        "meta_classification_type": "U",
        "meta_norad_cat_id": 64900,
        "meta_element_set_no": 999,
        "meta_rev_at_epoch": 2093,
        "meta_bstar": 0.00044048872,
        "meta_mean_motion_dot": 9.483e-05,
        "meta_mean_motion_ddot": 0,
        "tle_line1": "1 64900U 25156B   25344.93446964  .00009483  00000+0  44049-3 0  9998",
        "tle_line2": "2 64900  97.4338  61.3273 0001396 101.4652 258.6740 15.20213047 20936"
      },
      "geometry": {
        "type": "Point",
        "coordinates": [
          49.17564066581348,
          58.74271805090533
        ]
      }
    },
    {
      "type": "Feature",
      "properties": {
        "norad_id": 64901,
        "name": "CO3D 4",
        "group": "resource",
        "lat": 57.90178332619078,
        "lon": 49.58295694054741,
        "alt_km": 500.3883367080052,
        "timestamp": "2025-12-11T05:00:25.969069+00:00",
        "meta_object_name": "CO3D 4",
        "meta_object_id": "2025-156C",
        "meta_epoch": "2025-12-09T21:09:17.831232",
        "meta_mean_motion": 15.20201124,
        "meta_eccentricity": 0.0001172,
        "meta_inclination": 97.4339,
        "meta_ra_of_asc_node": 60.2895,
        "meta_arg_of_pericenter": 212.2858,
        "meta_mean_anomaly": 147.8306,
        "meta_ephemeris_type": 0,
        "meta_classification_type": "U",
        "meta_norad_cat_id": 64901,
        "meta_element_set_no": 999,
        "meta_rev_at_epoch": 2077,
        "meta_bstar": -2.5806744e-05,
        "meta_mean_motion_dot": -6.26e-06,
        "meta_mean_motion_ddot": 0,
        "tle_line1": "1 64901U 25156C   25343.88145638 -.00000626  00000+0 -25807-4 0  9990",
        "tle_line2": "2 64901  97.4339  60.2895 0001172 212.2858 147.8306 15.20201124 20779"
      },
      "geometry": {
        "type": "Point",
        "coordinates": [
          49.58295694054741,
          57.90178332619078
        ]
      }
    }
  ]
}